*******************************************************************************
Ephemeris / WWW_USER Mon Mar 26 20:55:46 2018 Pasadena, USA      / Horizons    
*******************************************************************************
Target body name: Metis (516)                     {source: jup310}
Center body name: Jupiter Barycenter (5)          {source: DE431mx}
Center-site name: BODY CENTER
*******************************************************************************
Start time      : A.D. 2000-Jan-01 00:00:00.0000 TDB
Stop  time      : A.D. 2010-Jan-01 00:00:00.0000 TDB
Step-size       : 7200 minutes
*******************************************************************************
Center geodetic : 0.00000000,0.00000000,0.0000000 {E-lon(deg),Lat(deg),Alt(km)}
Center cylindric: 0.00000000,0.00000000,0.0000000 {E-lon(deg),Dxy(km),Dz(km)}
Center radii    : (undefined)                                                  
Output units    : AU-D                                                         
Output type     : GEOMETRIC cartesian states
Output format   : 2 (position and velocity)
Reference frame : ICRF/J2000.0                                                 
Coordinate systm: Ecliptic and Mean Equinox of Reference Epoch                 
*******************************************************************************
JDTDB
   X     Y     Z
   VX    VY    VZ
*******************************************************************************
$$SOE
2452384.500000000 = A.D. 2002-Apr-20 00:00:00.0000 TDB 
  -5.209953568528719E-04  6.781048097448223E-04  1.666753114308000E-05
  -1.446361657448959E-02 -1.109977004016658E-02 -6.129713792500341E-04
2452389.500000000 = A.D. 2002-Apr-25 00:00:00.0000 TDB 
  -3.444433810350014E-04  7.831475572371783E-04  2.292157324279647E-05
  -1.669225365596151E-02 -7.343057079878300E-03 -5.102845937193614E-04
2452394.500000000 = A.D. 2002-Apr-30 00:00:00.0000 TDB 
  -1.489261670178039E-04  8.409268821657050E-04  2.779024435124208E-05
  -1.795470987454453E-02 -3.167465762024254E-03 -3.776443129709394E-04
2452399.500000000 = A.D. 2002-May-05 00:00:00.0000 TDB 
   5.519003497022610E-05  8.527801064090556E-04  3.118080016970733E-05
  -1.818804630875912E-02  1.178171774582006E-03 -2.234262285284258E-04
2452404.500000000 = A.D. 2002-May-10 00:00:00.0000 TDB 
   2.557196570070694E-04  8.176237185060204E-04  3.287319856581199E-05
  -1.739289014825112E-02  5.449640028489603E-03 -5.686978012391812E-05
2452409.500000000 = A.D. 2002-May-15 00:00:00.0000 TDB 
   4.411418964753464E-04  7.320973927980402E-04  3.258765312338767E-05
  -1.561183648780527E-02  9.415069400189538E-03  1.126055975023115E-04
2452414.500000000 = A.D. 2002-May-20 00:00:00.0000 TDB 
   6.026635339724121E-04  6.051551510505252E-04  3.049120434314715E-05
  -1.293735969890531E-02  1.285447999343305E-02  2.754144932223015E-04
2452419.500000000 = A.D. 2002-May-25 00:00:00.0000 TDB 
   7.297397391736668E-04  4.461948325925193E-04  2.673883737758478E-05
  -9.513896883722979E-03  1.556120869270227E-02  4.219344491362575E-04
2452424.500000000 = A.D. 2002-May-30 00:00:00.0000 TDB 
   8.147477822275538E-04  2.590988227688699E-04  2.134430457469994E-05
  -5.539461953405551E-03  1.736924556474125E-02  5.434308556959280E-04
2452429.500000000 = A.D. 2002-Jun-04 00:00:00.0000 TDB 
   8.533250012869567E-04  5.697797238751640E-05  1.469549462918791E-05
  -1.256807667836758E-03  1.817582873969049E-02  6.330251431193121E-04
2452434.500000000 = A.D. 2002-Jun-09 00:00:00.0000 TDB 
   8.434793203745268E-04 -1.449824134983864E-04  7.297027758108607E-06
   3.085246189252965E-03  1.794861737947269E-02  6.864077696843795E-04
2452439.500000000 = A.D. 2002-Jun-14 00:00:00.0000 TDB 
   7.853944217075250E-04 -3.392749440540862E-04 -5.781140279662206E-07
   7.252063101730090E-03  1.670940417515027E-02  7.014153737289403E-04
2452444.500000000 = A.D. 2002-Jun-19 00:00:00.0000 TDB 
   6.815824189824632E-04 -5.173902436347261E-04 -8.560482080661788E-06
   1.101785836586774E-02  1.451779276864627E-02  6.772628205142450E-04
2452449.500000000 = A.D. 2002-Jun-24 00:00:00.0000 TDB 
   5.393005487253342E-04 -6.641970027781601E-04 -1.598813754480619E-05
   1.416028492580523E-02  1.148725165338968E-02  6.149299726268102E-04
2452454.500000000 = A.D. 2002-Jun-29 00:00:00.0000 TDB 
   3.657601591348069E-04 -7.714887138083770E-04 -2.244526094934966E-05
   1.648542616171226E-02  7.790848294247030E-03  5.177149412287613E-04
2452459.500000000 = A.D. 2002-Jul-04 00:00:00.0000 TDB 
   1.711000225378932E-04 -8.380704016512377E-04 -2.770742251537291E-05
   1.785975867074225E-02  3.652365768285165E-03  3.913546993576558E-04
2452464.500000000 = A.D. 2002-Jul-09 00:00:00.0000 TDB 
  -3.179751556091436E-05 -8.556312647921833E-04 -3.128893053425392E-05
   1.821213480880570E-02 -6.823908194242142E-04  2.431529330715050E-04
2452469.500000000 = A.D. 2002-Jul-14 00:00:00.0000 TDB 
  -2.327441623177514E-04 -8.217651903917831E-04 -3.296003509377075E-05
   1.753382925268880E-02 -4.973383330814367E-03  8.109905843859435E-05
2452474.500000000 = A.D. 2002-Jul-19 00:00:00.0000 TDB 
  -4.210894280361451E-04 -7.435814683385516E-04 -3.282826879577414E-05
   1.586424481504826E-02 -8.988423433005318E-03 -8.633408425519220E-05
2452479.500000000 = A.D. 2002-Jul-24 00:00:00.0000 TDB 
  -5.860627063077773E-04 -6.234179623797969E-04 -3.083957729419072E-05
   1.328301063246984E-02 -1.250205761085507E-02 -2.501053265670505E-04
2452484.500000000 = A.D. 2002-Jul-29 00:00:00.0000 TDB 
  -7.172660691641144E-04 -4.645130237820034E-04 -2.698672795522380E-05
   9.929628465140799E-03 -1.529975018793389E-02 -4.004484673660748E-04
2452489.500000000 = A.D. 2002-Aug-03 00:00:00.0000 TDB 
  -8.075848989314451E-04 -2.796744441409701E-04 -2.164736188174773E-05
   6.006450267515975E-03 -1.721048511794111E-02 -5.279996578959481E-04
2452494.500000000 = A.D. 2002-Aug-08 00:00:00.0000 TDB 
  -8.521639455552761E-04 -8.230597560159157E-05 -1.522669742112503E-05
   1.752419725551528E-03 -1.813300103467023E-02 -6.251964917918083E-04
2452499.500000000 = A.D. 2002-Aug-13 00:00:00.0000 TDB 
  -8.468578670648344E-04  1.216241953843630E-04 -7.889507497546491E-06
  -2.593572676258009E-03 -1.802678348706014E-02 -6.865970524296667E-04
2452504.500000000 = A.D. 2002-Aug-18 00:00:00.0000 TDB 
  -7.936620969954600E-04  3.200900538868536E-04 -8.656586794519486E-08
  -6.796477817551712E-03 -1.690213328741259E-02 -7.086916235529557E-04
2452509.500000000 = A.D. 2002-Aug-23 00:00:00.0000 TDB 
  -6.956280101579018E-04  4.972811601890357E-04  7.605444974187949E-06
  -1.062061933664306E-02 -1.481222568842801E-02 -6.897133839053289E-04
2452514.500000000 = A.D. 2002-Aug-28 00:00:00.0000 TDB 
  -5.568607768833599E-04  6.478114804006627E-04  1.494782738905673E-05
  -1.384364971700995E-02 -1.186525159498391E-02 -6.302792582423395E-04
2452519.500000000 = A.D. 2002-Sep-02 00:00:00.0000 TDB 
  -3.861924978912381E-04  7.637995663717893E-04  2.154714285800566E-05
  -1.626787506617078E-02 -8.232922679769949E-03 -5.338862480866590E-04
2452524.500000000 = A.D. 2002-Sep-07 00:00:00.0000 TDB 
  -1.942278254032269E-04  8.333977596337050E-04  2.683957597659858E-05
  -1.775094398875390E-02 -4.135768391319375E-03 -4.067947541563128E-04
2452529.500000000 = A.D. 2002-Sep-12 00:00:00.0000 TDB 
   8.067962858749252E-06  8.542180715324482E-04  3.058662296892017E-05
  -1.822227280689695E-02  1.847607465237861E-04 -2.571172535117619E-04
2452534.500000000 = A.D. 2002-Sep-17 00:00:00.0000 TDB 
   2.106377326716177E-04  8.289798005551204E-04  3.271920882574933E-05
  -1.766566252578762E-02  4.493898474774532E-03 -9.347892402666121E-05
2452539.500000000 = A.D. 2002-Sep-22 00:00:00.0000 TDB 
   4.010006008121751E-04  7.559063490459356E-04  3.296978436254621E-05
  -1.610539256252907E-02  8.557432471725510E-03  7.509595344889716E-05
2452544.500000000 = A.D. 2002-Sep-27 00:00:00.0000 TDB 
   5.683276782649901E-04  6.365784967576517E-04  3.122884109504339E-05
  -1.361482458242240E-02  1.213938193761860E-02  2.390257018426102E-04
2452549.500000000 = A.D. 2002-Oct-02 00:00:00.0000 TDB 
   7.047169022191217E-04  4.834267606111707E-04  2.779033637507266E-05
  -1.033795753961877E-02  1.502386950306967E-02  3.886767339758277E-04
2452554.500000000 = A.D. 2002-Oct-07 00:00:00.0000 TDB 
   8.002276202465268E-04  3.040834834628209E-04  2.276878069963699E-05
  -6.472442100046993E-03  1.703880022478329E-02  5.154084574595047E-04
2452559.500000000 = A.D. 2002-Oct-12 00:00:00.0000 TDB 
   8.491822150482380E-04  1.043554938306076E-04  1.629689964768228E-05
  -2.246017060979240E-03  1.807765751532283E-02  6.125534349126672E-04
2452564.500000000 = A.D. 2002-Oct-17 00:00:00.0000 TDB 
   8.500153137255206E-04 -9.981405638025125E-05  8.924648411640249E-06
   2.101124079637277E-03  1.809288752941088E-02  6.753765527386150E-04
2452569.500000000 = A.D. 2002-Oct-22 00:00:00.0000 TDB 
   8.024535467407664E-04 -2.962548609337629E-04  1.099134861770552E-06
   6.334500310166018E-03  1.708396249062474E-02  7.007532018650398E-04
2452574.500000000 = A.D. 2002-Oct-27 00:00:00.0000 TDB 
   7.083544090616707E-04 -4.784869877248754E-04 -6.894765244588508E-06
   1.021818704115067E-02  1.509609416452443E-02  6.869340656407114E-04
2452579.500000000 = A.D. 2002-Nov-01 00:00:00.0000 TDB 
   5.734559320268942E-04 -6.347387215213416E-04 -1.452083373267055E-05
   1.351857513666213E-02  1.223297113781863E-02  6.340611701037322E-04
2452584.500000000 = A.D. 2002-Nov-06 00:00:00.0000 TDB 
   4.072504308891233E-04 -7.518351412137650E-04 -2.116619084990685E-05
   1.603445473123153E-02  8.668577397245310E-03  5.450507255662274E-04
2452589.500000000 = A.D. 2002-Nov-11 00:00:00.0000 TDB 
   2.174197435849020E-04 -8.263149982654777E-04 -2.658775935550305E-05
   1.762761472606457E-02  4.618235322430226E-03  4.251172313394761E-04
